INTELSAT 9 (IS-9)       
1 26451U 00043A   25136.81978632 -.00000003  00000+0  00000+0 0  9998
2 26451   9.5148  52.7823 0004445  14.7750 168.5846  1.00272154 40166
INTELSAT 10 (IS-10)     
1 26766U 01019A   25136.56367939  .00000004  00000+0  00000+0 0  9995
2 26766   8.1250  63.2978 0004359 344.7308  95.5118  1.00272422 41644
INTELSAT 901 (IS-901)   
1 26824U 01024A   25136.89636817 -.00000002  00000+0  00000+0 0  9995
2 26824   0.2168  93.4748 0004398 352.3497 203.9459  0.98817252 19007
INTELSAT 902 (IS-902)   
1 26900U 01039A   25132.29908979 -.00000267  00000+0  00000+0 0  9990
2 26900   5.1038  76.6755 0004277 328.5330 242.6902  1.00270893 86757
INTELSAT 904 (IS-904)   
1 27380U 02007A   25136.72942788 -.00000202  00000+0  00000+0 0  9996
2 27380   5.9260  73.9294 0003099 344.6576  49.1928  1.00270920 47795
DIRECTV 5 (TEMPO 1)     
1 27426U 02023A   25137.38655850 -.00000044  00000+0  00000+0 0  9993
2 27426   3.8640  80.2694 0003732 349.3042 194.8171  1.00272401 84339
INTELSAT 905 (IS-905)   
1 27438U 02027A   25136.55761598  .00000108  00000+0  00000+0 0  9995
2 27438   5.7541  74.5690 0002781 342.0803 241.3963  1.00270811 47387
GALAXY 3C (G-3C)        
1 27445U 02030A   25137.14484641 -.00000140  00000+0  00000+0 0  9991
2 27445   2.7093  82.9994 0003365  41.7224  67.6835  1.00271385 83983
INTELSAT 906 (IS-906)   
1 27513U 02041A   25136.65661953  .00000027  00000+0  00000+0 0  9990
2 27513   4.7948  77.8131 0003580 344.6425 112.6834  1.00270886 83056
GALAXY 23 (G-23)        
1 27854U 03034A   25137.50530821  .00000025  00000+0  00000+0 0  9993
2 27854   2.1751  84.6067 0002751 340.6591 231.2001  1.00271687 84573
GALAXY 13 (HORIZONS-1)  
1 27954U 03044A   25137.18933609  .00000145  00000+0  00000+0 0  9993
2 27954   0.3948  90.1149 0001962 323.4793  99.7042  1.00273136 79185
INTELSAT 10-02          
1 28358U 04022A   25136.87790929  .00000004  00000+0  00000+0 0  9994
2 28358   0.0467  87.1166 0001150 299.2396 163.5557  1.00278847 76654
XM-3 (RHYTHM)           
1 28626U 05008A   25137.36072613 -.00000186  00000+0  00000+0 0  9997
2 28626   0.0155  53.1771 0001552 146.1515  79.4931  1.00265685 74093
DIRECTV 8               
1 28659U 05019A   25137.50530821  .00000013  00000+0  00000+0 0  9999
2 28659   0.0237  60.8027 0003270   5.8185 231.7018  1.00271671 73216
GALAXY 28 (G-28)        
1 28702U 05022A   25137.14488950 -.00000174  00000+0  00000+0 0  9996
2 28702   2.2787  83.8717 0001232 347.5068 127.1586  1.00270438 72859
GALAXY 16 (G-16)        
1 29236U 06023A   25136.82118744 -.00000113  00000+0  00000+0 0  9999
2 29236   0.0612 113.3447 0002862 295.9014  22.1588  1.00270541 68992
DIRECTV 9S              
1 29494U 06043A   25136.85801370 -.00000100  00000+0  00000+0 0  9990
2 29494   1.3962  85.7608 0003175 328.4205  28.3270  1.00271104 47408
GALAXY 17 (G-17)        
1 31307U 07016B   25137.14683843 -.00000193  00000+0  00000+0 0  9995
2 31307   1.9683  84.9751 0001522  45.5626  72.4297  1.00271162 66109
DIRECTV 10              
1 31862U 07032A   25137.56558872 -.00000091  00000+0  00000+0 0  9995
2 31862   0.0040 302.0969 0000116  55.1095 339.1296  1.00271434 65431
INTELSAT 11 (IS-11)     
1 32253U 07044B   25136.74906285  .00000088  00000+0  00000+0 0  9992
2 32253   2.5314  83.5825 0001606  34.5911  95.7646  0.99043997 64523
HORIZONS-2              
1 32388U 07063B   25136.84142214 -.00000240  00000+0  00000+0 0  9998
2 32388   1.5778  85.5803 0002271 342.6733  35.6478  1.00269530 63843
DIRECTV 11              
1 32729U 08013A   25136.81516553 -.00000112  00000+0  00000+0 0  9999
2 32729   0.0114  59.9364 0000384 282.4891  86.6225  1.00270826 41613
GALAXY 18 (G-18)        
1 32951U 08024A   25136.71092236  .00000039  00000+0  00000+0 0  9991
2 32951   0.0436  96.8091 0003177 321.3119 309.4737  1.00272332 41879
INTELSAT 25 (IS-25)     
1 33153U 08034A   25137.15735095 -.00000211  00000+0  00000+0 0  9996
2 33153   1.6853  85.2410 0003250 337.3484 197.6570  1.00270197 61663
GALAXY 19 (G-19)        
1 33376U 08045A   25136.85888250 -.00000126  00000+0  00000+0 0  9998
2 33376   0.0517  98.9577 0002978 323.1224  24.9346  1.00270800 60939
FM-5                    
1 35493U 09034A   25137.00376880 -.00000187  00000+0  00000+0 0  9995
2 35493   0.0147 286.2278 0000152 305.9829 277.9620  1.00271896 58007
INTELSAT 14 (IS-14)     
1 36097U 09064A   25137.05669855 -.00000261  00000+0  00000+0 0  9994
2 36097   0.0192  24.5084 0002617  33.0007 152.9225  1.00271885 56729
INTELSAT 15 (IS-15)     
1 36106U 09067A   25136.89497809 -.00000173  00000+0  00000+0 0  9999
2 36106   0.0147 298.5038 0002465 123.2258 220.4737  1.00272091 37259
DIRECTV 12              
1 36131U 09075A   25137.56558860 -.00000092  00000+0  00000+0 0  9996
2 36131   0.0111  58.4161 0000502   6.1660 271.8220  1.00271255 56422
INTELSAT 16 (IS-16)     
1 36397U 10006A   25137.14857604 -.00000232  00000+0  00000+0 0  9994
2 36397   0.0326  64.3357 0002611  23.1122 124.9410  1.00272296 55741
XM-5                    
1 37185U 10053A   25136.09946975 -.00000009  00000+0  00000+0 0  9997
2 37185   0.0305 280.5636 0002494 269.8382 324.2838  1.00272403 53503
INTELSAT 17 (IS-17)     
1 37238U 10065B   25136.89114876  .00000011  00000+0  00000+0 0  9996
2 37238   0.0053 286.2356 0002747 141.6117 193.8060  1.00270233 49273
INTELSAT 28 (IS-28)     
1 37392U 11016A   25137.15735095 -.00000212  00000+0  00000+0 0  9990
2 37392   0.7810  87.8234 0004502 331.1831 201.0629  1.00271477 51549
INTELSAT 18 (IS-18)     
1 37834U 11056A   25137.12799163  .00000066  00000+0  00000+0 0  9994
2 37834   0.0135 286.3103 0002091 137.8349  37.0182  1.00271638 49873
INTELSAT 22 (IS-22)     
1 38098U 12011A   25136.71919865 -.00000046  00000+0  00000+0 0  9995
2 38098   0.0126 323.1001 0001781  93.1247 149.4605  1.00271928  3217
INTELSAT 19 (IS-19)     
1 38356U 12030A   25136.83959506 -.00000043  00000+0  00000+0 0  9999
2 38356   0.0161 331.8909 0003161  86.0303 285.1386  1.00270982 46472
INTELSAT 20 (IS-20)     
1 38740U 12043A   25136.65436015 -.00000011  00000+0  00000+0 0  9990
2 38740   0.0046 291.2081 0001694 262.3424 345.1256  1.00270819 46778
INTELSAT 21 (IS-21)     
1 38749U 12045A   25137.15213812 -.00000272  00000+0  00000+0 0  9994
2 38749   0.0383  90.2608 0002118 335.8710 165.7486  1.00271296 46668
INTELSAT 23 (IS-23)     
1 38867U 12057A   25137.42892003 -.00000273  00000+0  00000+0 0  9994
2 38867   0.0243 168.4296 0001242 256.4381 271.9384  1.00263115 46134
FM-6                    
1 39360U 13058A   25136.85497288 -.00000004  00000+0  00000+0 0  9999
2 39360   0.0152 313.1228 0000970 188.6601 284.6622  1.00271365 42086
INTELSAT 30 (IS-30)     
1 40271U 14062A   25137.07342321 -.00000138  00000+0  00000+0 0  9998
2 40271   0.0204  21.8752 0001034  33.1981 111.3344  1.00271264 38797
DIRECTV 14              
1 40333U 14078B   25136.85844810 -.00000112  00000+0  00000+0 0  9991
2 40333   0.0165 293.6358 0000267 198.5164 312.4894  1.00269845 38065
DIRECTV 15              
1 40663U 15026A   25137.00046734 -.00000090  00000+0  00000+0 0  9993
2 40663   0.0531  97.7231 0000398  42.3615 352.1767  1.00271936 36560
SKY MEXICO-1            
1 40664U 15026B   25136.86244459 -.00000221  00000+0  00000+0 0  9997
2 40664   0.0254 345.7877 0002979  95.3246  25.4279  1.00272366 36487
INTELSAT 34 (IS-34)     
1 40874U 15039A   25136.84142214 -.00000272  00000+0  00000+0 0  9994
2 40874   0.0159 299.2672 0000474  41.9205 141.0265  1.00272031 35657
INTELSAT 31 (IS-31)     
1 41581U 16035A   25137.35898853 -.00000138  00000+0  00000+0 0  9992
2 41581   0.0168 271.9485 0002152 311.1234  46.4166  1.00268790 32709
INTELSAT 36 (IS-36)     
1 41747U 16053A   25137.03441392 -.00000011  00000+0  00000+0 0  9993
2 41747   0.0113 342.2735 0001107 336.0029 357.5984  1.00269162 31976
INTELSAT 32E (IS-32E)   
1 41945U 17007B   25136.72673459 -.00000256  00000+0  00000+0 0  9990
2 41945   0.0165  41.9347 0000734 319.5713  91.6278  1.00270724 30276
INTELSAT 35E (IS-35E)   
1 42818U 17041A   25136.87121951 -.00000225  00000+0  00000+0 0  9995
2 42818   0.0143 279.6370 0002221 139.0532  95.2876  1.00269988 28849
INTELSAT 37E (IS-37E)   
1 42950U 17059A   25137.16009112 -.00000128  00000+0  00000+0 0  9990
2 42950   0.0178 299.8708 0002537 126.9534 207.9353  1.00271605 28076
AZERSPACE 2 (IS-38)     
1 43632U 18074A   25136.73586360  .00000150  00000+0  00000+0 0  9997
2 43632   0.0166 293.2884 0001638 129.3660 122.0655  1.00269737 24477
HORIZONS-3E             
1 43633U 18074B   25136.75461440 -.00000017  00000+0  00000+0 0  9994
2 43633   0.0397 146.8780 0000393 213.1842 315.3184  1.00271889 24366
AT&T T-16               
1 44333U 19034A   25136.85801370 -.00000102  00000+0  00000+0 0  9995
2 44333   0.0409  92.9728 0000245 314.9467  34.9252  1.00270406 21653
INTELSAT 39 (IS-39)     
1 44476U 19049B   25136.77267000  .00000046  00000+0  00000+0 0  9992
2 44476   0.0163 294.0073 0000394  42.0255 238.8099  1.00270790 21150
GALAXY 30 (G-30)        
1 46114U 20056C   25137.21379051  .00000049  00000+0  00000+0 0  9996
2 46114   0.0169 301.2879 0002407 121.0900 124.7502  1.00272277 17434
GALAXY 33 (G-33)        
1 54026U 22128A   25137.54920902  .00000091  00000+0  00000+0 0  9999
2 54026   0.0034   0.9349 0002102  63.0430 236.2475  1.00272160  9773
GALAXY 34 (G-34)        
1 54027U 22128B   25136.67358462  .00000073  00000+0  00000+0 0  9999
2 54027   0.0182 316.3019 0001750 109.4905 282.3216  1.00268591  9932
GALAXY 31 (G-31)        
1 54243U 22153A   25136.61572523  .00000027  00000+0  00000+0 0  9996
2 54243   0.0163 268.1007 0000868 105.6301 321.5125  1.00271292  3154
GALAXY 32 (G-32)        
1 54244U 22153B   25136.86001194 -.00000161  00000+0  00000+0 0  9995
2 54244   0.0144   9.1234 0002715  27.5196  56.7840  1.00271481  9175
GALAXY 35 (G-35)        
1 54741U 22170A   25136.85966442 -.00000149  00000+0  00000+0 0  9997
2 54741   0.0157 276.1663 0002202 145.1126  29.9197  1.00272121  8925
GALAXY 36 (G-36)        
1 54742U 22170B   25136.86044635 -.00000172  00000+0  00000+0 0  9996
2 54742   0.0022 115.1401 0003056 323.0943  17.3523  1.00271881  8804
GALAXY 37 (G-37)        
1 57493U 23112A   25136.67038744  .00000062  00000+0  00000+0 0  9999
2 57493   0.0196  25.2671 0002198  30.9399 292.7680  1.00270813  6565
